<?xml version="1.0" encoding="UTF-8"?><?xml-stylesheet type="text/xsl" href="//gcm.org.tw/main-sitemap.xsl"?>
<kml xmlns="http://www.opengis.net/kml/2.2" xmlns:atom="http://www.w3.org/2005/Atom">
	<Document>
		<name>Locations for GCM</name>
		<open>1</open>
		<Folder>
			<atom:link href="https://gcm.org.tw" />
			<Placemark>
				<name><![CDATA[GCM]]></name>
				<description><![CDATA[上醫預防醫學發展協會 - 上醫治未病，中醫治欲病，下醫治已病]]></description>
				<address><![CDATA[公益路二段, 南屯區, 台中市, 408, 台灣]]></address>
				<phoneNumber><![CDATA[]]></phoneNumber>
				<atom:link href="https://gcm.org.tw"/>
				<LookAt>
					<altitude>0</altitude>
					<range></range>
					<tilt>0</tilt>
				</LookAt>
				<Point>
				</Point>
			</Placemark>
		</Folder>
	</Document>
</kml>

<!-- XML Sitemap generated by Rank Math SEO Plugin (c) Rank Math - rankmath.com -->